start=new Date('2022-05-09T00:00:00.000Z').valueOf();
sats=[{"EPHEMERIS_TYPE":"0","ARG_OF_PERICENTER":"46.4978","MEAN_MOTION":"15.08872339","MEAN_ANOMALY":"191.3684","LAUNCH_DATE":"2022-02-25","MEAN_MOTION_DDOT":"0.0000000000000","DECAY_DATE":null,"TLE_LINE1":"1 51792U 22017AA  22128.83334491 -.00042468  00000-0 -26636-2 0  9997","TIME_SYSTEM":"UTC","BSTAR":"-0.00266360000000","OBJECT_TYPE":"PAYLOAD","RA_OF_ASC_NODE":"157.7924","PERIOD":"95.436","MEAN_MOTION_DOT":"-0.00042468","CENTER_NAME":"EARTH","GP_ID":"203028179","INCLINATION":"53.2210","RCS_SIZE":"LARGE","MEAN_ELEMENT_THEORY":"SGP4","NORAD_CAT_ID":"51792","CLASSIFICATION_TYPE":"U","SITE":"AFWTR","COUNTRY_CODE":"US","EPOCH":"2022-05-08T20:00:01.000224","APOAPSIS":"540.965","FILE":"3436109","REF_FRAME":"TEME","SEMIMAJOR_AXIS":"6917.782","OBJECT_ID":"2022-017AA","OBJECT_NAME":"STARLINK-3626","ECCENTRICITY":"0.00019060","PERIAPSIS":"538.328","ELEMENT_SET_NO":"999","TLE_LINE2":"2 51792  53.2210 157.7924 0001906  46.4978 191.3684 15.08872339 12481","REV_AT_EPOCH":"1248"},{"TLE_LINE2":"2 51793  53.2154 158.9181 0001786  40.4777 198.6728 15.08868333  3639","REV_AT_EPOCH":"363","ECCENTRICITY":"0.00017860","OBJECT_NAME":"STARLINK-3633","ELEMENT_SET_NO":"999","PERIAPSIS":"538.423","REF_FRAME":"TEME","OBJECT_ID":"2022-017AB","SEMIMAJOR_AXIS":"6917.794","EPOCH":"2022-05-08T14:00:01.000224","APOAPSIS":"540.894","FILE":"3435746","COUNTRY_CODE":"US","SITE":"AFWTR","CLASSIFICATION_TYPE":"U","NORAD_CAT_ID":"51793","MEAN_ELEMENT_THEORY":"SGP4","RCS_SIZE":"LARGE","INCLINATION":"53.2154","GP_ID":"203018753","PERIOD":"95.436","RA_OF_ASC_NODE":"158.9181","MEAN_MOTION_DOT":"-0.00017652","CENTER_NAME":"EARTH","BSTAR":"-0.00109280000000","OBJECT_TYPE":"PAYLOAD","DECAY_DATE":null,"TIME_SYSTEM":"UTC","TLE_LINE1":"1 51793U 22017AB  22128.58334491 -.00017652  00000-0 -10928-2 0  9994","MEAN_ANOMALY":"198.6728","LAUNCH_DATE":"2022-02-25","MEAN_MOTION_DDOT":"0.0000000000000","MEAN_MOTION":"15.08868333","ARG_OF_PERICENTER":"40.4777","EPHEMERIS_TYPE":"0"},{"REF_FRAME":"TEME","SEMIMAJOR_AXIS":"6917.831","OBJECT_ID":"2022-017AC","APOAPSIS":"540.988","EPOCH":"2022-05-08T20:00:01.000224","FILE":"3435789","TLE_LINE2":"2 51794  53.2194 157.7921 0001867  49.9499 227.8957 15.08856135 12443","REV_AT_EPOCH":"1244","OBJECT_NAME":"STARLINK-3573","ECCENTRICITY":"0.00018670","PERIAPSIS":"538.405","ELEMENT_SET_NO":"999","CLASSIFICATION_TYPE":"U","NORAD_CAT_ID":"51794","MEAN_ELEMENT_THEORY":"SGP4","SITE":"AFWTR","COUNTRY_CODE":"US","OBJECT_TYPE":"PAYLOAD","BSTAR":"-0.00065691000000","DECAY_DATE":null,"TLE_LINE1":"1 51794U 22017AC  22128.83334491 -.00010732  00000-0 -65691-3 0  9993","TIME_SYSTEM":"UTC","GP_ID":"203020010","INCLINATION":"53.2194","RCS_SIZE":"LARGE","PERIOD":"95.437","RA_OF_ASC_NODE":"157.7921","MEAN_MOTION_DOT":"-0.00010732","CENTER_NAME":"EARTH","ARG_OF_PERICENTER":"49.9499","EPHEMERIS_TYPE":"0","LAUNCH_DATE":"2022-02-25","MEAN_ANOMALY":"227.8957","MEAN_MOTION_DDOT":"0.0000000000000","MEAN_MOTION":"15.08856135"},{"RCS_SIZE":"LARGE","GP_ID":"203018832","INCLINATION":"53.2187","CENTER_NAME":"EARTH","MEAN_MOTION_DOT":"0.00029296","PERIOD":"95.437","RA_OF_ASC_NODE":"158.9160","OBJECT_TYPE":"PAYLOAD","BSTAR":"0.00185080000000","TIME_SYSTEM":"UTC","TLE_LINE1":"1 51795U 22017AD  22128.58334491  .00029296  00000-0  18508-2 0  9993","DECAY_DATE":null,"MEAN_ANOMALY":"293.7298","LAUNCH_DATE":"2022-02-25","MEAN_MOTION_DDOT":"0.0000000000000","MEAN_MOTION":"15.08846680","ARG_OF_PERICENTER":"45.4288","EPHEMERIS_TYPE":"0","TLE_LINE2":"2 51795  53.2187 158.9160 0001766  45.4288 293.7298 15.08846680  3623","REV_AT_EPOCH":"362","PERIAPSIS":"538.503","ELEMENT_SET_NO":"999","ECCENTRICITY":"0.00017660","OBJECT_NAME":"STARLINK-3586","OBJECT_ID":"2022-017AD","SEMIMAJOR_AXIS":"6917.860","REF_FRAME":"TEME","FILE":"3435746","APOAPSIS":"540.947","EPOCH":"2022-05-08T14:00:01.000224","COUNTRY_CODE":"US","SITE":"AFWTR","NORAD_CAT_ID":"51795","CLASSIFICATION_TYPE":"U","MEAN_ELEMENT_THEORY":"SGP4"},{"PERIOD":"95.439","MEAN_MOTION_DOT":"-0.00003709","RA_OF_ASC_NODE":"157.8095","CENTER_NAME":"EARTH","RCS_SIZE":"LARGE","GP_ID":"203019744","INCLINATION":"53.2133","DECAY_DATE":null,"TIME_SYSTEM":"UTC","TLE_LINE1":"1 51796U 22017AE  22128.83334491 -.00003709  00000-0 -21514-3 0  9997","BSTAR":"-0.00021514000000","OBJECT_TYPE":"PAYLOAD","MEAN_MOTION":"15.08823027","MEAN_MOTION_DDOT":"0.0000000000000","LAUNCH_DATE":"2022-02-25","MEAN_ANOMALY":"298.0001","EPHEMERIS_TYPE":"0","ARG_OF_PERICENTER":"39.8268","ECCENTRICITY":"0.00018650","OBJECT_NAME":"STARLINK-3630","ELEMENT_SET_NO":"999","PERIAPSIS":"538.507","REV_AT_EPOCH":"1243","TLE_LINE2":"2 51796  53.2133 157.8095 0001865  39.8268 298.0001 15.08823027 12434","EPOCH":"2022-05-08T20:00:01.000224","APOAPSIS":"541.087","FILE":"3435769","REF_FRAME":"TEME","OBJECT_ID":"2022-017AE","SEMIMAJOR_AXIS":"6917.932","COUNTRY_CODE":"US","SITE":"AFWTR","MEAN_ELEMENT_THEORY":"SGP4","NORAD_CAT_ID":"51796","CLASSIFICATION_TYPE":"U"},{"MEAN_ELEMENT_THEORY":"SGP4","NORAD_CAT_ID":"51797","CLASSIFICATION_TYPE":"U","COUNTRY_CODE":"US","SITE":"AFWTR","EPOCH":"2022-05-08T20:00:01.000224","APOAPSIS":"540.888","FILE":"3435769","REF_FRAME":"TEME","OBJECT_ID":"2022-017AF","SEMIMAJOR_AXIS":"6917.827","ECCENTRICITY":"0.00017290","OBJECT_NAME":"STARLINK-3627","PERIAPSIS":"538.496","ELEMENT_SET_NO":"999","TLE_LINE2":"2 51797  53.2191 157.7919 0001729  49.3766 168.4936 15.08857391 12495","REV_AT_EPOCH":"1249","EPHEMERIS_TYPE":"0","ARG_OF_PERICENTER":"49.3766","MEAN_MOTION":"15.08857391","LAUNCH_DATE":"2022-02-25","MEAN_ANOMALY":"168.4936","MEAN_MOTION_DDOT":"0.0000000000000","DECAY_DATE":null,"TIME_SYSTEM":"UTC","TLE_LINE1":"1 51797U 22017AF  22128.83334491 -.00064801  00000-0 -40884-2 0  9998","OBJECT_TYPE":"PAYLOAD","BSTAR":"-0.00408840000000","PERIOD":"95.436","MEAN_MOTION_DOT":"-0.00064801","RA_OF_ASC_NODE":"157.7919","CENTER_NAME":"EARTH","RCS_SIZE":"LARGE","GP_ID":"203019753","INCLINATION":"53.2191"},{"OBJECT_NAME":"STARLINK-3634","ECCENTRICITY":"0.00020730","PERIAPSIS":"538.298","ELEMENT_SET_NO":"999","REV_AT_EPOCH":"363","TLE_LINE2":"2 51798  53.2123 158.9338 0002073  38.8870  40.1826 15.08844441  3633","EPOCH":"2022-05-08T14:00:01.000224","APOAPSIS":"541.166","FILE":"3435746","REF_FRAME":"TEME","SEMIMAJOR_AXIS":"6917.867","OBJECT_ID":"2022-017AG","SITE":"AFWTR","COUNTRY_CODE":"US","MEAN_ELEMENT_THEORY":"SGP4","CLASSIFICATION_TYPE":"U","NORAD_CAT_ID":"51798","MEAN_MOTION_DOT":"0.00025962","PERIOD":"95.437","RA_OF_ASC_NODE":"158.9338","CENTER_NAME":"EARTH","INCLINATION":"53.2123","GP_ID":"203019248","RCS_SIZE":"LARGE","DECAY_DATE":null,"TLE_LINE1":"1 51798U 22017AG  22128.58334491  .00025962  00000-0  16431-2 0  9995","TIME_SYSTEM":"UTC","OBJECT_TYPE":"PAYLOAD","BSTAR":"0.00164310000000","MEAN_MOTION":"15.08844441","MEAN_MOTION_DDOT":"0.0000000000000","LAUNCH_DATE":"2022-02-25","MEAN_ANOMALY":"40.1826","EPHEMERIS_TYPE":"0","ARG_OF_PERICENTER":"38.8870"},{"BSTAR":"-0.00002385900000","OBJECT_TYPE":"PAYLOAD","DECAY_DATE":null,"TLE_LINE1":"1 51799U 22017AH  22128.83334491 -.00000668  00000-0 -23859-4 0  9996","TIME_SYSTEM":"UTC","INCLINATION":"53.2188","GP_ID":"203019613","RCS_SIZE":"LARGE","MEAN_MOTION_DOT":"-0.00000668","PERIOD":"95.437","RA_OF_ASC_NODE":"157.7918","CENTER_NAME":"EARTH","ARG_OF_PERICENTER":"44.2764","EPHEMERIS_TYPE":"0","MEAN_MOTION_DDOT":"0.0000000000000","LAUNCH_DATE":"2022-02-25","MEAN_ANOMALY":"253.5569","MEAN_MOTION":"15.08850193","REF_FRAME":"TEME","SEMIMAJOR_AXIS":"6917.849","OBJECT_ID":"2022-017AH","EPOCH":"2022-05-08T20:00:01.000224","APOAPSIS":"540.879","FILE":"3435772","REV_AT_EPOCH":"1244","TLE_LINE2":"2 51799  53.2188 157.7918 0001684  44.2764 253.5569 15.08850193 12440","OBJECT_NAME":"STARLINK-3637","ECCENTRICITY":"0.00016840","PERIAPSIS":"538.549","ELEMENT_SET_NO":"999","NORAD_CAT_ID":"51799","CLASSIFICATION_TYPE":"U","MEAN_ELEMENT_THEORY":"SGP4","SITE":"AFWTR","COUNTRY_CODE":"US"},{"OBJECT_ID":"2022-017AJ","SEMIMAJOR_AXIS":"6917.943","REF_FRAME":"TEME","FILE":"3435771","EPOCH":"2022-05-08T20:00:01.000224","APOAPSIS":"541.283","TLE_LINE2":"2 51800  53.2121 157.8096 0002132  49.8586 342.8095 15.08819564 12487","REV_AT_EPOCH":"1248","PERIAPSIS":"538.333","ELEMENT_SET_NO":"999","ECCENTRICITY":"0.00021320","OBJECT_NAME":"STARLINK-3600","NORAD_CAT_ID":"51800","CLASSIFICATION_TYPE":"U","MEAN_ELEMENT_THEORY":"SGP4","COUNTRY_CODE":"US","SITE":"AFWTR","OBJECT_TYPE":"PAYLOAD","BSTAR":"-0.00004149800000","TIME_SYSTEM":"UTC","TLE_LINE1":"1 51800U 22017AJ  22128.83334491 -.00000948  00000-0 -41498-4 0  9999","DECAY_DATE":null,"RCS_SIZE":"LARGE","INCLINATION":"53.2121","GP_ID":"203019578","CENTER_NAME":"EARTH","MEAN_MOTION_DOT":"-0.00000948","PERIOD":"95.439","RA_OF_ASC_NODE":"157.8096","ARG_OF_PERICENTER":"49.8586","EPHEMERIS_TYPE":"0","LAUNCH_DATE":"2022-02-25","MEAN_MOTION_DDOT":"0.0000000000000","MEAN_ANOMALY":"342.8095","MEAN_MOTION":"15.08819564"},{"TLE_LINE2":"2 51801  53.2112 158.9365 0001750  19.5453  19.5739 15.08792117  3624","REV_AT_EPOCH":"362","PERIAPSIS":"538.681","ELEMENT_SET_NO":"999","ECCENTRICITY":"0.00017500","OBJECT_NAME":"STARLINK-3592","OBJECT_ID":"2022-017AK","SEMIMAJOR_AXIS":"6918.027","REF_FRAME":"TEME","FILE":"3435746","APOAPSIS":"541.102","EPOCH":"2022-05-08T14:00:01.000224","COUNTRY_CODE":"US","SITE":"AFWTR","NORAD_CAT_ID":"51801","CLASSIFICATION_TYPE":"U","MEAN_ELEMENT_THEORY":"SGP4","RCS_SIZE":"LARGE","GP_ID":"203018754","INCLINATION":"53.2112","CENTER_NAME":"EARTH","PERIOD":"95.441","MEAN_MOTION_DOT":"0.00025058","RA_OF_ASC_NODE":"158.9365","OBJECT_TYPE":"PAYLOAD","BSTAR":"0.00158900000000","TIME_SYSTEM":"UTC","TLE_LINE1":"1 51801U 22017AK  22128.58334491  .00025058  00000-0  15890-2 0  9994","DECAY_DATE":null,"MEAN_ANOMALY":"19.5739","LAUNCH_DATE":"2022-02-25","MEAN_MOTION_DDOT":"0.0000000000000","MEAN_MOTION":"15.08792117","ARG_OF_PERICENTER":"19.5453","EPHEMERIS_TYPE":"0"}];
